{
  "norad_id": 65144,
  "name": "KUIPER-00106",
  "history": [
    {
      "epoch": "2026-03-28T22:25:13.015488Z",
      "apogee_km": 580.553291766767,
      "perigee_km": 570.2853923298453,
      "latitude_deg": -3.425571033282343e-05,
      "longitude_deg": -95.1276621263669,
      "height_km": 580.9782015633807,
      "semi_major_axis_km": 6953.556342048306,
      "eccentricity": 0.00073832,
      "inclination_deg": 51.8932,
      "raan_deg": 67.5241,
      "arg_perigee_deg": 159.561,
      "mean_anomaly_deg": 200.5656,
      "mean_motion_rev_day": 14.97243013
    },
    {
      "epoch": "2026-03-29T04:49:41.208960Z",
      "apogee_km": 580.5347143895633,
      "perigee_km": 570.2698996645304,
      "latitude_deg": -2.840731211468878e-06,
      "longitude_deg": 167.27842936476097,
      "height_km": 580.9827415955716,
      "semi_major_axis_km": 6953.539307027047,
      "eccentricity": 0.0007381,
      "inclination_deg": 51.8934,
      "raan_deg": 66.3108,
      "arg_perigee_deg": 160.3049,
      "mean_anomaly_deg": 199.8207,
      "mean_motion_rev_day": 14.97248515
    }
  ]
}